$$SOE
2461302.500000000, A.D. 2026-Sep-19 00:00:00.0000, 8.422671275613396E+07, -8.938234340728393E+07, -3.539395077962491E+07,
2461309.500000000, A.D. 2026-Sep-26 00:00:00.0000, 1.003451711726378E+08, -8.077006244540960E+07, -4.876551997193585E+07,
2461316.500000000, A.D. 2026-Oct-03 00:00:00.0000, 1.146035120175575E+08, -7.064574483441824E+07, -6.123687544661289E+07,
2461323.500000000, A.D. 2026-Oct-10 00:00:00.0000, 1.271433224298783E+08, -5.945219606516185E+07, -7.279246781136525E+07,
2461330.500000000, A.D. 2026-Oct-17 00:00:00.0000, 1.381211479128126E+08, -4.752148065028565E+07, -8.345551478397875E+07,
2461337.500000000, A.D. 2026-Oct-24 00:00:00.0000, 1.476895731147747E+08, -3.510105598039202E+07, -9.326819628950614E+07,
2461344.500000000, A.D. 2026-Oct-31 00:00:00.0000, 1.559890563360748E+08, -2.237556461143764E+07, -1.022804095918669E+08,
2461351.500000000, A.D. 2026-Nov-07 00:00:00.0000, 1.631452824091138E+08, -9.483496350943748E+06, -1.105436615249111E+08,
2461358.500000000, A.D. 2026-Nov-14 00:00:00.0000, 1.692691530331117E+08, 3.470541119495898E+06, -1.181079129899836E+08,
2461365.500000000, A.D. 2026-Nov-21 00:00:00.0000, 1.744579165658702E+08, 1.640691980364588E+07, -1.250200768093893E+08,
2461372.500000000, A.D. 2026-Nov-28 00:00:00.0000, 1.787966920476992E+08, 2.926455165340018E+07, -1.313234222359902E+08,
2461379.500000000, A.D. 2026-Dec-05 00:00:00.0000, 1.823600385458120E+08, 4.199621551639909E+07, -1.370574639648878E+08,
2461386.500000000, A.D. 2026-Dec-12 00:00:00.0000, 1.852134159930924E+08, 5.456514701032318E+07, -1.422580987204582E+08,
2461393.500000000, A.D. 2026-Dec-19 00:00:00.0000, 1.874144796102619E+08, 6.694253061923706E+07, -1.469578579118502E+08,
2461400.500000000, A.D. 2026-Dec-26 00:00:00.0000, 1.890141982540412E+08, 7.910563871254784E+07, -1.511862045555475E+08,
2461407.500000000, A.D. 2027-Jan-02 00:00:00.0000, 1.900578080248864E+08, 9.103643797924750E+07, -1.549698361615676E+08,
2461414.500000000, A.D. 2027-Jan-09 00:00:00.0000, 1.905856200620486E+08, 1.027205364574800E+08, -1.583329740788451E+08,
2461421.500000000, A.D. 2027-Jan-16 00:00:00.0000, 1.906337029963836E+08, 1.141463808910418E+08, -1.612976302938769E+08,
2461428.500000000, A.D. 2027-Jan-23 00:00:00.0000, 1.902344594199251E+08, 1.253046396308882E+08, -1.638838484562578E+08,
2461435.500000000, A.D. 2027-Jan-30 00:00:00.0000, 1.894171136869771E+08, 1.361877242169978E+08, -1.661099190045910E+08,
2461442.500000000, A.D. 2027-Feb-06 00:00:00.0000, 1.882081261593506E+08, 1.467894158306090E+08, -1.679925698161840E+08,
2461449.500000000, A.D. 2027-Feb-13 00:00:00.0000, 1.866315457932586E+08, 1.571045727091214E+08, -1.695471343455008E+08,
2461456.500000000, A.D. 2027-Feb-20 00:00:00.0000, 1.847093089885880E+08, 1.671288990988588E+08, -1.707876994386047E+08,
2461463.500000000, A.D. 2027-Feb-27 00:00:00.0000, 1.824614946219984E+08, 1.768587585936797E+08, -1.717272355525992E+08,
2461470.500000000, A.D. 2027-Mar-06 00:00:00.0000, 1.799065453302374E+08, 1.862910232563525E+08, -1.723777116822665E+08,
2461477.500000000, A.D. 2027-Mar-13 00:00:00.0000, 1.770614592574094E+08, 1.954229525721915E+08, -1.727501966489806E+08,
2461484.500000000, A.D. 2027-Mar-20 00:00:00.0000, 1.739419559425470E+08, 2.042520952772371E+08, -1.728549484731826E+08,
2461491.500000000, A.D. 2027-Mar-27 00:00:00.0000, 1.705626205321346E+08, 2.127762087876673E+08, -1.727014934407185E+08,
2461498.500000000, A.D. 2027-Apr-03 00:00:00.0000, 1.669370298290346E+08, 2.209931925109932E+08, -1.722986962353419E+08,
2461505.500000000, A.D. 2027-Apr-10 00:00:00.0000, 1.630778629962482E+08, 2.289010321887175E+08, -1.716548223134876E+08,
2461512.500000000, A.D. 2027-Apr-17 00:00:00.0000, 1.589969992440475E+08, 2.364977529922391E+08, -1.707775935405948E+08,
2461519.500000000, A.D. 2027-Apr-24 00:00:00.0000, 1.547056045170436E+08, 2.437813795147728E+08, -1.696742379821522E+08,
2461526.500000000, A.D. 2027-May-01 00:00:00.0000, 1.502142091145018E+08, 2.507499012539987E+08, -1.683515346402007E+08,
2461533.500000000, A.D. 2027-May-08 00:00:00.0000, 1.455327779375543E+08, 2.574012431784845E+08, -1.668158537678714E+08,
2461540.500000000, A.D. 2027-May-15 00:00:00.0000, 1.406707730500671E+08, 2.637332413898146E+08, -1.650731931213203E+08,
2461547.500000000, A.D. 2027-May-22 00:00:00.0000, 1.356372079978313E+08, 2.697436205213799E+08, -1.631292107164412E+08,
2461554.500000000, A.D. 2027-May-29 00:00:00.0000, 1.304406981141077E+08, 2.754299707793233E+08, -1.609892549672580E+08,
2461561.500000000, A.D. 2027-Jun-05 00:00:00.0000, 1.250895084625713E+08, 2.807897272296340E+08, -1.586583924280504E+08,
2461568.500000000, A.D. 2027-Jun-12 00:00:00.0000, 1.195915980799458E+08, 2.858201513139203E+08, -1.561414332663124E+08,
2461575.500000000, A.D. 2027-Jun-19 00:00:00.0000, 1.139546607805469E+08, 2.905183132754105E+08, -1.534429548242066E+08,
2461582.500000000, A.D. 2027-Jun-26 00:00:00.0000, 1.081861633366414E+08, 2.948810748991660E+08, -1.505673235977738E+08,
2461589.500000000, A.D. 2027-Jul-03 00:00:00.0000, 1.022933816534224E+08, 2.989050722755175E+08, -1.475187159012505E+08,
2461596.500000000, A.D. 2027-Jul-10 00:00:00.0000, 9.628343542243163E+07, 3.025866983227166E+08, -1.443011374539371E+08,
2461603.500000000, A.D. 2027-Jul-17 00:00:00.0000, 9.016332170550050E+07, 3.059220847782447E+08, -1.409184421179013E+08,
2461610.500000000, A.D. 2027-Jul-24 00:00:00.0000, 8.393994800161310E+07, 3.089070833609615E+08, -1.373743500238255E+08,
2461617.500000000, A.D. 2027-Jul-31 00:00:00.0000, 7.762016559825575E+07, 3.115372461156638E+08, -1.336724653235324E+08,
2461624.500000000, A.D. 2027-Aug-07 00:00:00.0000, 7.121080340431087E+07, 3.138078058704949E+08, -1.298162936805987E+08,
2461631.500000000, A.D. 2027-Aug-14 00:00:00.0000, 6.471870037575645E+07, 3.157136563223863E+08, -1.258092595322621E+08,
2461638.500000000, A.D. 2027-Aug-21 00:00:00.0000, 5.815073757533884E+07, 3.172493281433576E+08, -1.216547236813584E+08,
2461645.500000000, A.D. 2027-Aug-28 00:00:00.0000, 5.151387374704390E+07, 3.184089620649907E+08, -1.173560016856351E+08,
2461652.500000000, A.D. 2027-Sep-04 00:00:00.0000, 4.481518372087727E+07, 3.191862811780015E+08, -1.129163830055133E+08,
2461659.500000000, A.D. 2027-Sep-11 00:00:00.0000, 3.806189879819040E+07, 3.195745614944114E+08, -1.083391511363380E+08,
2461666.500000000, A.D. 2027-Sep-18 00:00:00.0000, 3.126144986122619E+07, 3.195665998077846E+08, -1.036276051322415E+08,
2461673.500000000, A.D. 2027-Sep-25 00:00:00.0000, 2.442151413240947E+07, 3.191546784314671E+08, -9.878508294402918E+07,
2461680.500000000, A.D. 2027-Oct-02 00:00:00.0000, 1.755006646291476E+07, 3.183305264661245E+08, -9.381498703668699E+07,
2461687.500000000, A.D. 2027-Oct-09 00:00:00.0000, 1.065543611123172E+07, 3.170852771771234E+08, -8.872081283243895E+07,
2461694.500000000, A.D. 2027-Oct-16 00:00:00.0000, 3.746370179027050E+06, 3.154094209688638E+08, -8.350618063683408E+07,
2461701.500000000, A.D. 2027-Oct-23 00:00:00.0000, -3.167894726177226E+06, 3.132927534457145E+08, -7.817487184996915E+07,
2461708.500000000, A.D. 2027-Oct-30 00:00:00.0000, -1.007755066198951E+07, 3.107243186177447E+08, -7.273087039076765E+07,
2461715.500000000, A.D. 2027-Nov-06 00:00:00.0000, -1.697212563248788E+07, 3.076923477813021E+08, -6.717841028945440E+07,
2461722.500000000, A.D. 2027-Nov-13 00:00:00.0000, -2.384037967231252E+07, 3.041841913453273E+08, -6.152203085100787E+07,
2461729.500000000, A.D. 2027-Nov-20 00:00:00.0000, -3.067018405048265E+07, 3.001862407184917E+08, -5.576664158329599E+07,
2461736.500000000, A.D. 2027-Nov-27 00:00:00.0000, -3.744837856860257E+07, 2.956838425202706E+08, -4.991759897804516E+07,
2461743.500000000, A.D. 2027-Dec-04 00:00:00.0000, -4.416060473599305E+07, 2.906612053334485E+08, -4.398079764539769E+07,
2461750.500000000, A.D. 2027-Dec-11 00:00:00.0000, -5.079111014428508E+07, 2.851012974106882E+08, -3.796277930552922E+07,
2461757.500000000, A.D. 2027-Dec-18 00:00:00.0000, -5.732251721460097E+07, 2.789857345178508E+08, -3.187086409561740E+07,
2461764.500000000, A.D. 2027-Dec-25 00:00:00.0000, -6.373554793114030E+07, 2.722946577479978E+08, -2.571330988013925E+07,
2461771.500000000, A.D. 2028-Jan-01 00:00:00.0000, -7.000869410714027E+07, 2.650066017041956E+08, -1.949950688123837E+07,
$$EOE